OBJECT_NAME,OBJECT_ID,EPOCH,MEAN_MOTION,ECCENTRICITY,INCLINATION,RA_OF_ASC_NODE,ARG_OF_PERICENTER,MEAN_ANOMALY,EPHEMERIS_TYPE,CLASSIFICATION_TYPE,NORAD_CAT_ID,ELEMENT_SET_NO,REV_AT_EPOCH,BSTAR,MEAN_MOTION_DOT,MEAN_MOTION_DDOT
CONNECTA IOT-1,2024-149E,2026-06-10T11:05:32.658720,15.23488943,.00008591,97.3759,237.8672,357.8976,2.2257,0,U,60472,999,10077,.15237377E-3,.3565E-4,0
LOPEN,2024-149F,2026-06-10T12:01:20.675136,15.39494105,.00001773,97.3777,244.8175,191.7449,168.3793,0,U,60473,999,10123,.34996541E-3,.13658E-3,0
ROCK,2024-149G,2026-06-10T11:41:58.817184,15.39491484,.00004788,97.3773,244.8198,219.1939,140.9272,0,U,60474,999,10123,.36169281E-3,.14118E-3,0
CONNECTA IOT-3,2024-149H,2026-06-10T11:36:24.167520,15.23501028,.00013854,97.3734,237.6434,305.8162,54.2946,0,U,60475,999,10078,.16417685E-3,.3848E-4,0
QUBE,2024-149J,2026-06-10T04:30:27.584928,15.46882316,.0001331,97.3773,247.4884,214.5294,145.5869,0,U,60476,999,10138,.43466E-3,.21794E-3,0
WREN-1,2024-149L,2026-06-10T12:18:25.024896,15.41293470,.00029518,97.3767,245.5565,282.8586,77.2331,0,U,60478,999,10129,.44233181E-3,.18354E-3,0
TOMORROW-S1,2024-149M,2026-06-10T13:00:57.362112,15.32624882,.00010378,97.3750,242.0357,256.1896,103.9230,0,U,60479,999,10107,.21582667E-3,.6721E-4,0
FLOCK 4BE-18,2024-149N,2026-06-10T04:49:32.943072,15.41635789,.00023891,97.3729,244.8588,270.0697,90.0276,0,U,60480,999,10123,.39459106E-3,.16547E-3,0
FLOCK 4BE-7,2024-149P,2026-06-10T11:04:21.696672,15.40043307,.00015691,97.3757,244.4744,276.9044,83.2024,0,U,60481,999,10121,.49965911E-3,.19907E-3,0
FLOCK 4BE-26,2024-149S,2026-06-10T11:14:36.010176,15.66611160,.00048876,97.3655,247.1636,217.3655,142.7266,0,U,60484,999,10141,.11637016E-2,.123195E-2,0
TOMORROW-S2,2024-149T,2026-06-09T18:56:53.424672,15.32641135,.00013708,97.3815,241.7675,320.4268,39.6873,0,U,60485,999,10095,.22648776E-3,.7061E-4,0
FLOCK 4BE-36,2024-149U,2026-06-10T12:01:13.284480,15.42516861,.00021357,97.3745,245.8501,291.3936,68.7084,0,U,60486,999,10132,.3305191E-3,.14255E-3,0
FLOCK 4BE-25,2024-149V,2026-06-10T04:40:15.267360,15.38659096,.00008059,97.3798,244.2985,269.8112,90.3041,0,U,60487,999,10116,.34336337E-3,.13036E-3,0
FLOCK 4BE-31,2024-149W,2026-06-10T05:07:29.455968,15.43823863,.00010701,97.3798,246.3977,294.2450,65.8686,0,U,60488,999,10130,.42066372E-3,.18993E-3,0
FLOCK 4BE-20,2024-149X,2026-06-10T13:04:41.819808,15.37886346,.00022151,97.3697,243.5471,287.7856,72.3147,0,U,60489,999,10119,.31895857E-3,.11802E-3,0
FLOCK 4BE-23,2024-149Y,2026-06-10T12:48:15.880896,15.37507380,.00019244,97.3779,243.9080,302.0079,58.0978,0,U,60490,999,10117,.30403496E-3,.11107E-3,0
FLOCK 4BE-15,2024-149Z,2026-06-10T11:26:03.729120,15.58574418,.00023032,97.3687,246.6120,252.6994,107.4011,0,U,60491,999,10138,.10832586E-2,.83529E-3,0
FLOCK 4BE-17,2024-149AA,2026-06-10T04:50:34.051200,15.39587622,.00016155,97.3773,244.5177,276.8581,83.2481,0,U,60492,999,10118,.35086417E-3,.13735E-3,0
NUSAT-50 (NANCY ROMAN),2024-149AB,2026-06-10T11:55:04.917216,15.29739140,.00028422,97.3787,242.7996,195.6913,164.4240,0,U,60493,999,10110,.29538679E-3,.8436E-4,0
FLOCK 4BE-22,2024-149AC,2026-06-10T13:54:01.941696,15.40962911,.00021308,97.3734,245.0786,292.5802,67.5219,0,U,60494,999,10128,.34130858E-3,.1398E-3,0
FLOCK 4BE-34,2024-149AD,2026-06-10T11:11:41.705952,15.40965950,.00020611,97.3781,245.7831,309.9498,50.1567,0,U,60495,999,10129,.36505938E-3,.14962E-3,0
TYCHE,2024-149AE,2026-06-10T12:18:06.155136,15.25932943,.00007382,97.3755,239.4177,327.2304,32.8889,0,U,60496,999,10088,.15514462E-3,.3908E-4,0
FLOCK 4BE-32,2024-149AF,2026-06-10T12:06:05.971392,15.41934996,.00021536,97.3720,245.3602,296.8758,63.2269,0,U,60497,999,10130,.39309713E-3,.16649E-3,0
NUSAT-48 (HENRIETTA LEAVITT),2024-149AG,2026-06-10T11:38:58.153920,15.30003791,.00025404,97.3914,243.0194,311.6205,48.4818,0,U,60498,999,10111,.29391513E-3,.8462E-4,0
FLOCK 4BE-30,2024-149AH,2026-06-10T12:04:43.190688,15.54863623,.00033165,97.3779,246.8050,239.4462,120.6465,0,U,60499,999,10073,.1639696E-2,.110651E-2,0
NUSAT-49 (KLARA DAN VON NEUMANN),2024-149AJ,2026-06-10T12:41:53.364768,15.29834946,.00015527,97.3781,242.8632,13.7339,346.3944,0,U,60500,999,10111,.26338658E-3,.7535E-4,0
FLOCK 4BE-11,2024-149AK,2026-06-10T12:03:27.377280,15.42762344,.00023119,97.3701,245.5823,295.5432,64.5577,0,U,60501,999,10132,.35764438E-3,.15562E-3,0
YAM-7,2024-149AN,2026-06-10T11:01:30.372384,15.31726634,.00024326,97.3783,241.7366,343.9978,16.1186,0,U,60504,999,10102,.2175611E-3,.6587E-4,0
FLOCK 4BE-24,2024-149AP,2026-06-10T03:57:37.595808,15.42816293,.0002552,97.3712,245.4943,311.8242,48.2787,0,U,60505,999,10128,.43183E-3,.18851E-3,0
LUR-1,2024-149AQ,2026-06-10T04:20:02.643360,15.30015041,.0003365,97.3738,240.0598,352.2761,7.8428,0,U,60506,999,10090,.21893E-3,.6285E-4,0
